#aV2014  3 15  0  0  0.00000000     288 DD+AD WGS84 FIT  NGA
## 1783 518400.00000000   300.00000000 56731 0.0000000000000
+   31     1  2  3  4  5  7  8  9 10 11 12 13 14 15 16 17 18
+         19 20 21 22 23 24 25 26 27 28 29 30 31 32  0  0  0
+          0  0  0  0  0  0  0  0  0  0  0  0  0  0  0  0  0
+          0  0  0  0  0  0  0  0  0  0  0  0  0  0  0  0  0
+          0  0  0  0  0  0  0  0  0  0  0  0  0  0  0  0  0
++         2  2  2  2  2  2  2  2  2  2  2  2  2  2  2  2  2
++         2  2  2  2  2  2  2  2  2  2  2  2  2  2  0  0  0
++         0  0  0  0  0  0  0  0  0  0  0  0  0  0  0  0  0
++         0  0  0  0  0  0  0  0  0  0  0  0  0  0  0  0  0
++         0  0  0  0  0  0  0  0  0  0  0  0  0  0  0  0  0
%c cc cc ccc ccc cccc cccc cccc cccc ccccc ccccc ccccc ccccc
%c cc cc ccc ccc cccc cccc cccc cccc ccccc ccccc ccccc ccccc
%f  0.0000000  0.000000000  0.00000000000  0.000000000000000
%f  0.0000000  0.000000000  0.00000000000  0.000000000000000
%i    0    0    0    0      0      0      0      0         0
%i    0    0    0    0      0      0      0      0         0
/*      NGA, ST. LOUIS,MO.                                  
/*   EPHEMERIS COMPUTED FROM  1 DAYS OF DATA                
/*   EPOCHA SMOOTHER                                       
/* CCCCCCCCCCCCCCCCCCCCCCCCCCCCCCCCCCCCCCCCCCCCCCCCCCCCCCCCC
*  2014  3 15 16 25  0.00000000
P  1 -13352.523265  12059.832447  19464.699517      4.163599                    
V  1  -1828.949574 -24789.584180  14206.909319      0.018487                    
P  2  14110.918098  12775.145195 -18441.586471    484.071600                    
V  2   -400.052553  23933.942536  15538.454515      0.021879                    
P  3 -25492.947418  -6881.411908   3045.137626    338.588206                    
V  3  -3067.586163  -4777.038428 -30802.684482      0.051640                    
P  4   7186.962780  24000.602567  -8754.492645      6.121327                    
V  4  -2991.794789  10905.415033  28680.147452      0.002495                    
P  5  20755.947758   1263.300277 -16653.664280   -384.182290                    
V  5 -16894.223263  12704.234937 -19977.627253      0.018861                    
P  7  -6423.212858  23748.746763  -9503.987239    324.319343                    
V  7  -2444.784019 -12247.945297 -29064.522157      0.042149                    
P  8  -1327.815327  26133.595708   1847.030540     12.329524                    
V  8  -2350.581233   1977.782375 -32847.421642      0.002611                    
P  9   1771.791729  26306.538491   1776.213363    312.618255                    
V  9  -2226.197840   2961.306032 -32243.912544      0.028565                    
P 10   4651.917697  15358.753226 -21455.007503   -118.206719                    
V 10 -23211.602577  12976.922568   4748.813646     -0.014908                    
P 11 -16008.769722   4070.952264  20325.724123   -472.330373                    
V 11  -8869.765185 -25747.401219  -1568.985199     -0.032639                    
P 12  23810.230624 -11081.290388   2987.047515    192.344337                    
V 12  -2326.209401   3777.094531  32177.659232      0.023999                    
P 13  -8613.621341  12163.607781 -22120.599153     19.931844                    
V 13 -22826.521489 -15701.075652    109.480347     -0.038816                    
P 14  -8985.683098 -19140.600951  16374.826456    190.262886                    
V 14  17898.849347   9729.792190  21334.706737     -0.032634                    
P 15  23455.966979   1366.850823  12605.086541   -168.363055                    
V 15  13142.090745   9577.537469 -25094.246574     -0.020986                    
P 16 -20489.113553  -1772.653316 -17046.200111   -227.626803                    
V 16  18345.417267 -11012.099419 -20601.084355      0.016327                    
P 17  10903.970873  18976.169471  15462.723623    -76.571796                    
V 17 -17188.912823  -8423.056135  22611.400904     -0.032253                    
P 18  12052.968029 -19496.306255  13568.400952    307.408407                    
V 18  15871.766790  -6179.939962 -24085.183317      0.021580                    
P 19 -23123.466891  -5324.021273  12246.076677   -444.899605                    
V 19 -11843.234497 -10314.256502 -26131.432979     -0.023694                    
P 20 -22430.927340  14006.198520   1798.886616    170.293672                    
V 20   -181.752958  -4671.490712  30930.514267      0.035240                    
P 21   4261.543084 -24896.343973  -6762.289726   -349.519070                    
V 21   4316.832046   9422.089606 -29770.167492     -0.022330                    
P 22   -379.682917 -17581.685492  20067.796133    219.767746                    
V 22  22173.656893 -12101.044368 -10445.161242      0.026388                    
P 23 -19035.320678   4157.602129 -18129.918920     -4.089719                    
V 23 -19446.753112 -12555.834785  17040.507813     -0.031910                    
P 24  14694.236171  -6306.628439  21176.660443    -24.979278                    
V 24   1622.217956  26915.012771   6975.634902     -0.006573                    
P 25  17711.115306 -17756.429604  -8602.343769     18.597066                    
V 25  10423.361741  -3783.845177  29605.044349      0.014328                    
P 26  22887.168513  13414.207449   2576.042124    137.930875                    
V 26   2146.113602   4045.036043 -31656.490074     -0.110331                    
P 27 -23511.666305 -12403.359999    398.199568    -20.369521                    
V 27    856.288555  -2646.738110 -31752.424821     -0.002382                    
P 28  -4204.121813  17360.004244  20216.973714    339.775890                    
V 28 -21884.887827  10654.657446 -14262.028937      0.029252                    
P 29  10322.198096 -11190.921325 -21716.396785    518.268183                    
V 29  23418.107420  14722.498440   3581.630881      0.028185                    
P 30  -1731.885548  26491.866331   -423.124348      3.893664                    
V 30  -2839.177711   -686.308344 -31734.640566     -0.001928                    
P 31  -8131.451896 -21863.669905 -12245.250000    333.835569                    
V 31   2196.138664 -15872.703349  26850.222131      0.002294                    
P 32 -23376.665223   2094.717497  11949.747464   -468.661810                    
V 32  12322.282013  -9585.596135  26462.945747      0.071684                    
EOF
